{
  "type": "FeatureCollection",
  "features": [
    {
      "type": "Feature",
      "properties": {
        "norad_id": 34036,
        "name": "COSMOS 2251 DEB",
        "group": "cosmos-2251-debris",
        "lat": 29.03466354061388,
        "lon": -26.59281600826369,
        "alt_km": 576.1550687527488,
        "timestamp": "2025-12-06T03:35:02.279493+00:00",
        "meta_object_name": "COSMOS 2251 DEB",
        "meta_object_id": "1993-036HX",
        "meta_epoch": "2025-12-04T13:57:18.415296",
        "meta_mean_motion": 14.93967594,
        "meta_eccentricity": 0.0014479,
        "meta_inclination": 74.0193,
        "meta_ra_of_asc_node": 165.7197,
        "meta_arg_of_pericenter": 199.9535,
        "meta_mean_anomaly": 160.1085,
        "meta_ephemeris_type": 0,
        "meta_classification_type": "U",
        "meta_norad_cat_id": 34036,
        "meta_element_set_no": 999,
        "meta_rev_at_epoch": 88448,
        "meta_bstar": 0.0080934,
        "meta_mean_motion_dot": 0.00087457,
        "meta_mean_motion_ddot": 0,
        "tle_line1": "1 34036U 93036HX  25338.58146314  .00087457  00000+0  80934-2 0  9996",
        "tle_line2": "2 34036  74.0193 165.7197 0014479 199.9535 160.1085 14.93967594884484"
      },
      "geometry": {
        "type": "Point",
        "coordinates": [
          -26.59281600826369,
          29.03466354061388
        ]
      }
    },
    {
      "type": "Feature",
      "properties": {
        "norad_id": 34037,
        "name": "COSMOS 2251 DEB",
        "group": "cosmos-2251-debris",
        "lat": -9.308543130654508,
        "lon": -114.80882540613482,
        "alt_km": 770.1366604326922,
        "timestamp": "2025-12-06T03:35:02.279504+00:00",
        "meta_object_name": "COSMOS 2251 DEB",
        "meta_object_id": "1993-036HY",
        "meta_epoch": "2025-12-05T06:37:32.016864",
        "meta_mean_motion": 14.34632975,
        "meta_eccentricity": 0.00523125,
        "meta_inclination": 74.053,
        "meta_ra_of_asc_node": 64.1023,
        "meta_arg_of_pericenter": 116.3856,
        "meta_mean_anomaly": 244.268,
        "meta_ephemeris_type": 0,
        "meta_classification_type": "U",
        "meta_norad_cat_id": 34037,
        "meta_element_set_no": 999,
        "meta_rev_at_epoch": 87610,
        "meta_bstar": 0.0010527032,
        "meta_mean_motion_dot": 2.998e-05,
        "meta_mean_motion_ddot": 0,
        "tle_line1": "1 34037U 93036HY  25339.27606501  .00002998  00000+0  10527-2 0  9991",
        "tle_line2": "2 34037  74.0530  64.1023 0052312 116.3856 244.2680 14.34632975876109"
      },
      "geometry": {
        "type": "Point",
        "coordinates": [
          -114.80882540613482,
          -9.308543130654508
        ]
      }
    },
    {
      "type": "Feature",
      "properties": {
        "norad_id": 34040,
        "name": "COSMOS 2251 DEB",
        "group": "cosmos-2251-debris",
        "lat": -28.911978894734418,
        "lon": -94.10244260354044,
        "alt_km": 1264.004900986999,
        "timestamp": "2025-12-06T03:35:02.279514+00:00",
        "meta_object_name": "COSMOS 2251 DEB",
        "meta_object_id": "1993-036JB",
        "meta_epoch": "2025-12-05T07:16:14.902464",
        "meta_mean_motion": 13.68362924,
        "meta_eccentricity": 0.03428484,
        "meta_inclination": 73.9557,
        "meta_ra_of_asc_node": 78.1508,
        "meta_arg_of_pericenter": 33.0642,
        "meta_mean_anomaly": 329.1403,
        "meta_ephemeris_type": 0,
        "meta_classification_type": "U",
        "meta_norad_cat_id": 34040,
        "meta_element_set_no": 999,
        "meta_rev_at_epoch": 83498,
        "meta_bstar": 0.00056636085,
        "meta_mean_motion_dot": 7.08e-06,
        "meta_mean_motion_ddot": 0,
        "tle_line1": "1 34040U 93036JB  25339.30295026  .00000708  00000+0  56636-3 0  9994",
        "tle_line2": "2 34040  73.9557  78.1508 0342848  33.0642 329.1403 13.68362924834983"
      },
      "geometry": {
        "type": "Point",
        "coordinates": [
          -94.10244260354044,
          -28.911978894734418
        ]
      }
    },
    {
      "type": "Feature",
      "properties": {
        "norad_id": 34045,
        "name": "COSMOS 2251 DEB",
        "group": "cosmos-2251-debris",
        "lat": -62.60437665664109,
        "lon": 176.41265982041918,
        "alt_km": 802.1981143424,
        "timestamp": "2025-12-06T03:35:02.279525+00:00",
        "meta_object_name": "COSMOS 2251 DEB",
        "meta_object_id": "1993-036JG",
        "meta_epoch": "2025-12-05T06:50:02.087232",
        "meta_mean_motion": 14.34062262,
        "meta_eccentricity": 0.00253967,
        "meta_inclination": 74.0386,
        "meta_ra_of_asc_node": 324.4731,
        "meta_arg_of_pericenter": 50.2114,
        "meta_mean_anomaly": 55.5386,
        "meta_ephemeris_type": 0,
        "meta_classification_type": "U",
        "meta_norad_cat_id": 34045,
        "meta_element_set_no": 999,
        "meta_rev_at_epoch": 87926,
        "meta_bstar": 0.00017106891,
        "meta_mean_motion_dot": 4.54e-06,
        "meta_mean_motion_ddot": 0,
        "tle_line1": "1 34045U 93036JG  25339.28474638  .00000454  00000+0  17107-3 0  9992",
        "tle_line2": "2 34045  74.0386 324.4731 0025396  50.2114  55.5386 14.34062262879262"
      },
      "geometry": {
        "type": "Point",
        "coordinates": [
          176.41265982041918,
          -62.60437665664109
        ]
      }
    },
    {
      "type": "Feature",
      "properties": {
        "norad_id": 34046,
        "name": "COSMOS 2251 DEB",
        "group": "cosmos-2251-debris",
        "lat": -53.79014737291312,
        "lon": -0.2292917842566504,
        "alt_km": 795.5013653050137,
        "timestamp": "2025-12-06T03:35:02.279535+00:00",
        "meta_object_name": "COSMOS 2251 DEB",
        "meta_object_id": "1993-036JH",
        "meta_epoch": "2025-12-05T04:54:11.329056",
        "meta_mean_motion": 14.46378457,
        "meta_eccentricity": 0.00747539,
        "meta_inclination": 74.0401,
        "meta_ra_of_asc_node": 24.5425,
        "meta_arg_of_pericenter": 110.2015,
        "meta_mean_anomaly": 314.2404,
        "meta_ephemeris_type": 0,
        "meta_classification_type": "U",
        "meta_norad_cat_id": 34046,
        "meta_element_set_no": 999,
        "meta_rev_at_epoch": 87717,
        "meta_bstar": 0.0022542457,
        "meta_mean_motion_dot": 8.362e-05,
        "meta_mean_motion_ddot": 0,
        "tle_line1": "1 34046U 93036JH  25339.20429779  .00008362  00000+0  22542-2 0  9995",
        "tle_line2": "2 34046  74.0401  24.5425 0074753 110.2015 314.2404 14.46378457877170"
      },
      "geometry": {
        "type": "Point",
        "coordinates": [
          -0.2292917842566504,
          -53.79014737291312
        ]
      }
    },
    {
      "type": "Feature",
      "properties": {
        "norad_id": 34050,
        "name": "COSMOS 2251 DEB",
        "group": "cosmos-2251-debris",
        "lat": -64.8790723271085,
        "lon": -16.11349128017601,
        "alt_km": 1058.1060023361815,
        "timestamp": "2025-12-06T03:35:02.279546+00:00",
        "meta_object_name": "COSMOS 2251 DEB",
        "meta_object_id": "1993-036JM",
        "meta_epoch": "2025-12-05T04:06:53.165952",
        "meta_mean_motion": 13.96162694,
        "meta_eccentricity": 0.0214624,
        "meta_inclination": 74.0887,
        "meta_ra_of_asc_node": 23.0343,
        "meta_arg_of_pericenter": 89.2887,
        "meta_mean_anomaly": 328.2767,
        "meta_ephemeris_type": 0,
        "meta_classification_type": "U",
        "meta_norad_cat_id": 34050,
        "meta_element_set_no": 999,
        "meta_rev_at_epoch": 85326,
        "meta_bstar": 0.00096858571,
        "meta_mean_motion_dot": 1.594e-05,
        "meta_mean_motion_ddot": 0,
        "tle_line1": "1 34050U 93036JM  25339.17144868  .00001594  00000+0  96859-3 0  9992",
        "tle_line2": "2 34050  74.0887  23.0343 0214624  89.2887 328.2767 13.96162694853260"
      },
      "geometry": {
        "type": "Point",
        "coordinates": [
          -16.11349128017601,
          -64.8790723271085
        ]
      }
    },
    {
      "type": "Feature",
      "properties": {
        "norad_id": 34053,
        "name": "COSMOS 2251 DEB",
        "group": "cosmos-2251-debris",
        "lat": -62.03548147974514,
        "lon": -140.29962354611172,
        "alt_km": 1173.9746453348134,
        "timestamp": "2025-12-06T03:35:02.279556+00:00",
        "meta_object_name": "COSMOS 2251 DEB",
        "meta_object_id": "1993-036JQ",
        "meta_epoch": "2025-12-05T04:46:26.497920",
        "meta_mean_motion": 13.49142459,
        "meta_eccentricity": 0.04217783,
        "meta_inclination": 73.8444,
        "meta_ra_of_asc_node": 254.3218,
        "meta_arg_of_pericenter": 44.1358,
        "meta_mean_anomaly": 319.2598,
        "meta_ephemeris_type": 0,
        "meta_classification_type": "U",
        "meta_norad_cat_id": 34053,
        "meta_element_set_no": 999,
        "meta_rev_at_epoch": 82582,
        "meta_bstar": 0.0013306551,
        "meta_mean_motion_dot": 1.428e-05,
        "meta_mean_motion_ddot": 0,
        "tle_line1": "1 34053U 93036JQ  25339.19891780  .00001428  00000+0  13307-2 0  9991",
        "tle_line2": "2 34053  73.8444 254.3218 0421778  44.1358 319.2598 13.49142459825820"
      },
      "geometry": {
        "type": "Point",
        "coordinates": [
          -140.29962354611172,
          -62.03548147974514
        ]
      }
    }
  ]
}